# FY3D (LEO)
1 43010U 17072A   26270.26468513  .00000531  00000+0  27265-3 0  9990
2 43010  99.0257 246.5938 0002429 102.5122 257.6325 14.19759081459473

# FY3E (LEO)
1 49008U 21062A   26270.30800813 -.00000002  00000+0  19852-4 0  9993
2 49008  98.7548 272.6038 0002296 125.1208 235.0184 14.19911711271075

# FY3F (LEO)
1 57490U 23111A   26270.28930661  .00000034  00000+0  36377-4 0  9991
2 57490  98.6742 338.3458 0001392 109.8895 250.2432 14.19952532163359

# FY3G (LEO)
1 56232U 23055A   26270.27008731  .00021709  00000+0  33278-3 0  9992
2 56232  49.9924 179.5822 0011023  88.5042 271.7188 15.54145877195876

# C2E1 (LEO)
1 44349U 19036L   26269.65109146  .00002153  00000+0  15750-3 0  9991
2 44349  23.9977  68.1556 0000465 303.9780  56.0676 14.96851759399870

# C2E2 (LEO)
1 44351U 19036N   26270.02945766  .00002206  00000+0  16194-3 0  9995
2 44351  23.9973 182.0338 0000378 304.7624  55.2841 14.96855744398863

# C2E3 (LEO)
1 44343U 19036E   26270.13600701  .00004273  00000+0  23235-3 0  9995
2 44343  23.9986 196.5078 0000970  67.8713 292.1894 15.10460529398672

# C2E4 (LEO)
1 44350U 19036M   26270.00695835  .00002185  00000+0  16013-3 0  9997
2 44350  23.9971 127.8653 0000927 308.9045  51.1373 14.96859014399343

# C2E5 (LEO)
1 44358U 19036V   26270.20694874  .00002089  00000+0  15200-3 0  9999
2 44358  23.9990 300.4101 0000117  38.8801 321.1708 14.96861964397650

# C2E6 (LEO)
1 44353U 19036Q   26270.29522773  .00002232  00000+0  16415-3 0  9990
2 44353  23.9983   1.0401 0000929 197.3074 162.7395 14.96865534397139

# G01 (GNSS)
1 62339U 24242A   26265.15629992 -.00000071  00000+0  00000+0 0  9998
2 62339  54.8004 330.2471 0019438   3.3623  65.0999  2.00555301 13203

# G02 (GNSS)
1 28474U 04045A   26270.09483314 -.00000042  00000+0  00000+0 0  9992
2 28474  55.0698 320.7849 0172684 318.9606  99.2698  2.00560294160473

# G03 (GNSS)
1 40294U 14068A   26269.63633213 -.00000061  00000+0  00000+0 0  9996
2 40294  57.0531  27.0559 0066826  73.9412 286.7980  2.00557597 87245

# G04 (GNSS)
1 43873U 18109A   26269.96499437  .00000047  00000+0  00000+0 0  9999
2 43873  55.7523  88.1722 0040432 196.3027 336.1973  2.00565529 57113

# G05 (GNSS)
1 35752U 09043A   26270.30103899 -.00000065  00000+0  00000+0 0  9998
2 35752  56.2692  23.4498 0051047  86.3778 251.8137  2.00576154125409

# G06 (GNSS)
1 39741U 14026A   26270.17463249 -.00000049  00000+0  00000+0 0  9992
2 39741  56.4410 327.5426 0039787 323.9849  35.8230  2.00553635 90589

# G07 (GNSS)
1 32711U 08012A   26269.84813744  .00000057  00000+0  00000+0 0  9999
2 32711  54.5053 145.8614 0211562 248.6416 109.1867  2.00553042135793

# G08 (GNSS)
1 40730U 15033A   26267.94136118  .00000016  00000+0  00000+0 0  9997
2 40730  53.9130 262.9663 0117755  30.6491 330.0423  2.00550998 81990

# G09 (GNSS)
1 40105U 14045A   26269.76481212  .00000041  00000+0  00000+0 0  9993
2 40105  55.4266  84.4192 0036568 120.4361 239.9736  2.00564951 88112

# G10 (GNSS)
1 41019U 15062A   26269.48794403 -.00000061  00000+0  00000+0 0  9999
2 41019  57.0237  26.9178 0116613 231.2335 127.7285  2.00566860 79866

# G11 (GNSS)
1 48859U 21054A   26268.66155751 -.00000053  00000+0  00000+0 0  9993
2 48859  55.1190 328.4169 0028897 231.2990  85.3696  2.00563063 38766

# G12 (GNSS)
1 29601U 06052A   26270.12964936  .00000019  00000+0  00000+0 0  9996
2 29601  54.9210 209.9688 0085872  91.1618 269.8086  2.00563649145452

# G13 (GNSS)
1 24876U 97035A   26269.91200409  .00000056  00000+0  00000+0 0  9990
2 24876  56.0541  94.5972 0106187  59.0790 302.0271  2.00564433213995

# G14 (GNSS)
1 46826U 20078A   26269.15190132  .00000010  00000+0  00000+0 0  9999
2 46826  53.9654 206.6876 0076411 208.3764 276.4987  2.00565000 43530

# G15 (GNSS)
1 32260U 07047A   26269.94006571  .00000023  00000+0  00000+0 0  9991
2 32260  54.1773  75.8748 0169037  89.7421 272.2287  2.00550899138851

# G16 (GNSS)
1 27663U 03005A   26269.57670102  .00000014  00000+0  00000+0 0  9998
2 27663  54.8658 210.9441 0150968  53.7797 132.5568  2.00555032173340

# G17 (GNSS)
1 28874U 05038A   26270.23859038  .00000015  00000+0  00000+0 0  9994
2 28874  54.8026 269.0500 0128709 297.8588 189.6626  2.00558628153881

# G18 (GNSS)
1 44506U 19056A   26268.64583333 -.00000051  00000+0  00000+0 0  9994
2 44506  55.5810 327.1460 0066237 200.5032   5.3845  2.00571792 52087

# G19 (GNSS)
1 28190U 04009A   26270.22912442  .00000014  00000+0  00000+0 0  9999
2 28190  54.7521 271.5551 0118290 176.8720 274.7297  2.00573163164998

# G20 (GNSS)
1 26360U 00025A   26269.67251796 -.00000075  00000+0  00000+0 0  9993
2 26360  55.1915  15.2223 0022371 262.3685 115.5986  2.00567659193319

# G21 (GNSS)
1 64202U 25116A   26260.32003325 -.00000081  00000+0  00000+0 0  9991
2 64202  55.2945  27.4305 0009049 334.7207  24.5191  2.00569445  9719

# G22 (GNSS)
1 26407U 00040A   26270.25755789  .00000020  00000+0  00000+0 0  9998
2 26407  54.8360 211.1117 0117563 304.0914 237.9330  2.00558413191999

# G23 (GNSS)
1 45854U 20041A   26269.45150161 -.00000064  00000+0  00000+0 0  9990
2 45854  56.7311  25.0238 0068465 206.3077 155.5767  2.00573218 46076

# G24 (GNSS)
1 38833U 12053A   26270.02614908  .00000059  00000+0  00000+0 0  9995
2 38833  53.5993 139.4235 0186296  67.6589 294.4130  2.00557207101486

# G25 (GNSS)
1 36585U 10022A   26270.28722926  .00000021  00000+0  00000+0 0  9998
2 36585  54.2567 204.4515 0116375  55.9464  35.7722  2.00610554119645

# G26 (GNSS)
1 40534U 15013A   26269.27202812  .00000011  00000+0  00000+0 0  9995
2 40534  53.1550 200.0001 0113615  41.4178 319.4340  2.00569977 83855

# G27 (GNSS)
1 39166U 13023A   26268.89604676  .00000016  00000+0  00000+0 0  9999
2 39166  54.4337 264.8634 0142762  51.1757 310.0991  2.00563151 97905

# G28 (GNSS)
1 55268U 23009A   26268.64583333  .00000053  00000+0  00000+0 0  9995
2 55268  55.1285 144.5680 0005596 331.7328  13.0735  2.00564765 27254

# G29 (GNSS)
1 32384U 07062A   26270.21863655  .00000015  00000+0  00000+0 0  9992
2 32384  54.9575 270.0420 0036001 170.3546 161.5541  2.00565636137555

# G30 (GNSS)
1 39533U 14008A   26269.89469808  .00000056  00000+0  00000+0 0  9992
2 39533  53.6645 145.1681 0083581 231.5459 127.8014  2.00566406 91725

# G31 (GNSS)
1 29486U 06042A   26269.45773966  .00000055  00000+0  00000+0 0  9991
2 29486  54.7165 147.3157 0109124  57.5636 126.5659  2.00564781146420

# G32 (GNSS)
1 41328U 16007A   26270.07479817  .00000042  00000+0  00000+0 0  9996
2 41328  55.5953  85.4209 0098009 247.3161 111.6911  2.00571904 77888

# C06 (GNSS)
1 36828U 10036A   26256.66970756 -.00000130  00000+0  00000+0 0  9997
2 36828  54.3037 162.1610 0058541 217.4777 320.7749  1.00289463 58981

# C04 (GNSS)
1 37210U 10057A   26270.22822633 -.00000105  00000+0  00000+0 0  9996
2 37210   3.8936  68.2073 0008417 179.4842   0.4837  1.00273668 58317

# C07 (GNSS)
1 37256U 10068A   26268.94752872 -.00000173  00000+0  00000+0 0  9996
2 37256  47.3693 270.5693 0056811 216.8386 323.4028  1.00255977 57802

# C14 (GNSS)
1 38775U 12050B   26269.85228330 -.00000003  00000+0  00000+0 0  9996
2 38775  56.6384  59.5392 0010668   3.1895 356.8230  1.86230824 95201

# C01 (GNSS)
1 44231U 19027A   26270.29119947 -.00000242  00000+0  00000+0 0  9999
2 44231   1.9095  74.2412 0008925 275.6248 265.5415  1.00267994 27104

# C24 (GNSS)
1 43582U 18062B   26269.99265581  .00000032  00000+0  00000+0 0  9992
2 43582  54.0809 178.8344 0006840  34.9108 325.1807  1.86228017 55537

# C26 (GNSS)
1 43602U 18067A   26269.93124909  .00000032  00000+0  00000+0 0  9992
2 43602  54.1774 177.5918 0009027  38.5878 321.5258  1.86227720 55012

# C25 (GNSS)
1 43603U 18067B   26270.06658688  .00000033  00000+0  00000+0 0  9996
2 43603  54.1745 177.5507 0005474  29.6367 330.4445  1.86227199 55041

# C32 (GNSS)
1 43622U 18072A   26270.02035707 -.00000004  00000+0  00000+0 0  9999
2 43622  56.7181  59.3054 0003978 323.0098  36.9678  1.86231174 54556

# C33 (GNSS)
1 43623U 18072B   26269.88577292 -.00000004  00000+0  00000+0 0  9992
2 43623  56.7198  59.3043 0003283  24.2024 335.8185  1.86231214 54549

# C35 (GNSS)
1 43647U 18078A   26270.03970470 -.00000012  00000+0  00000+0 0  9997
2 43647  53.9955 296.4048 0006127  30.1055 329.9850  1.86232327 54059

# C34 (GNSS)
1 43648U 18078B   26269.63370532 -.00000011  00000+0  00000+0 0  9994
2 43648  53.9917 296.4192 0002689  33.0843 326.9895  1.86227421 54060

# C59 (GNSS)
1 43683U 18085A   26270.26542825 -.00000101  00000+0  00000+0 0  9998
2 43683   2.6448  94.4943 0005675  25.0504 142.1622  1.00271712 29080

# C36 (GNSS)
1 43706U 18093A   26267.87949443  .00000009  00000+0  00000+0 0  9999
2 43706  54.1650 178.9167 0008097 304.7622 210.7581  1.86228391 53394

# C37 (GNSS)
1 43707U 18093B   26270.19665487  .00000033  00000+0  00000+0 0  9999
2 43707  54.1657 178.8301 0007227 342.4891  17.5340  1.86226804 53430

# C38 (GNSS)
1 44204U 19023A   26269.76078637 -.00000207  00000+0  00000+0 0  9996
2 44204  58.8402  36.6135 0028004 223.6539 137.4161  1.00262017  8236

# C39 (GNSS)
1 44337U 19035A   26269.61391384 -.00000113  00000+0  00000+0 0  9993
2 44337  55.2492 157.9721 0038628 210.4152 337.7061  1.00269067 26684

# C46 (GNSS)
1 44542U 19061A   26266.50572373 -.00000008  00000+0  00000+0 0  9997
2 44542  54.4306 179.4090 0020747  95.6918 264.5686  1.86175926 47622

# C45 (GNSS)
1 44543U 19061B   26270.08479943  .00000033  00000+0  00000+0 0  9992
2 44543  54.3912 179.2621 0006099   7.0927 143.8548  1.86227707 47692

# C40 (GNSS)
1 44709U 19073A   26268.43606693 -.00000151  00000+0  00000+0 0  9991
2 44709  54.6332 279.8039 0046657 198.3599 161.5058  1.00259625 25462

# C44 (GNSS)
1 44793U 19078A   26270.10500722 -.00000012  00000+0  00000+0 0  9998
2 44793  53.8408 296.2325 0004864  38.7965 321.2929  1.86227473 46543

# C43 (GNSS)
1 44794U 19078B   26269.70770713 -.00000012  00000+0  00000+0 0  9992
2 44794  53.8143 296.2056 0002853  26.1902 333.8804  1.86227996 46540

# C41 (GNSS)
1 44864U 19090A   26270.00774630 -.00000004  00000+0  00000+0 0  9992
2 44864  56.6529  59.4317 0015838 291.2858 108.0165  1.86231447 46131

# C42 (GNSS)
1 44865U 19090B   26270.08988353 -.00000004  00000+0  00000+0 0  9990
2 44865  56.6542  59.4639 0013024 306.3083 237.6330  1.86231482 46117

# C60 (GNSS)
1 45344U 20017A   26270.13590373 -.00000134  00000+0  00000+0 0  9995
2 45344   2.6101  48.5992 0002384 140.0620 306.2752  1.00271319 24284

# C61 (GNSS)
1 45807U 20040A   26270.28452611 -.00000347  00000+0  00000+0 0  9999
2 45807   2.6917  67.3739 0002911 285.3304 226.4022  1.00272644 23092

# C62 (GNSS)
1 56564U 23066A   26270.25044875 -.00000276  00000+0  00000+0 0  9999
2 56564   0.4428   1.2145 0005689 207.7096  27.3020  1.00275686 12415

# C50 (GNSS)
1 58654U 23207A   26270.32122542 -.00000008  00000+0  00000+0 0  9997
2 58654  55.8484  58.8642 0000238  45.7088 314.2973  1.86229594 18747

# E30 (GNSS)
1 40890U 15045B   26259.96432677  .00000017  00000+0  00000+0 0  9990
2 40890  54.9240 219.0714 0002624 353.2075   6.7586  1.70473245 68605

# E07 (GNSS)
1 41859U 16069A   26262.77251083  .00000026  00000+0  00000+0 0  9996
2 41859  55.5593  98.4673 0002813   1.3645 358.7113  1.70473990 61017

# E08 (GNSS)
1 41175U 15079B   26269.73874665  .00000062  00000+0  00000+0 0  9997
2 41175  55.8911  98.4714 0003086  32.7098 327.3877  1.70473781 66926

# E09 (GNSS)
1 41174U 15079A   26269.51833715  .00000063  00000+0  00000+0 0  9994
2 41174  55.8933  98.4806 0003413  21.4311 338.6628  1.70473998 66501

# E01 (GNSS)
1 41550U 16030B   26269.53252088  .00000011  00000+0  00000+0 0  9993
2 41550  55.0706 218.9074 0003549 255.7048 104.2182  1.70473438 64390

# E02 (GNSS)
1 41549U 16030A   26268.68884650  .00000010  00000+0  00000+0 0  9991
2 41549  55.0716 218.9325 0003800 339.4955  20.4499  1.70473000 64389

# E03 (GNSS)
1 41860U 16069B   26269.07828041  .00000062  00000+0  00000+0 0  9992
2 41860  55.5622  98.2879 0003783  44.1269 315.9849  1.70474076 61378

# E04 (GNSS)
1 41861U 16069C   26258.30017772  .00000003  00000+0  00000+0 0  9993
2 41861  55.5571  98.5941 0002003 331.4312  28.6313  1.70474479 61056

# E05 (GNSS)
1 41862U 16069D   26264.89902317  .00000042  00000+0  00000+0 0  9996
2 41862  55.5585  98.4041 0001465   3.2419 356.8418  1.70474219 61295

# E21 (GNSS)
1 43055U 17079A   26264.21490740  .00000014  00000+0  00000+0 0  9991
2 43055  55.0511 218.8658 0003078 285.6263  74.3098  1.70473893 54624

# E25 (GNSS)
1 43056U 17079B   26261.57308707  .00000017  00000+0  00000+0 0  9992
2 43056  55.0524 218.9384 0004504 291.2354  68.6899  1.70474061 54594

# E27 (GNSS)
1 43057U 17079C   26265.89998998  .00000011  00000+0  00000+0 0  9993
2 43057  55.0495 218.8171 0003907 307.6750  52.2543  1.70473918 54655

# E31 (GNSS)
1 43058U 17079D   26266.70664499  .00000010  00000+0  00000+0 0  9990
2 43058  55.0491 218.7927 0004775 287.2283  72.6819  1.70473905 54690

# E36 (GNSS)
1 43566U 18060C   26266.46499055 -.00000073  00000+0  00000+0 0  9992
2 43566  57.1324 339.1324 0004271 272.7946  87.2191  1.70476257 50860

# E13 (GNSS)
1 43567U 18060D   26259.06046681 -.00000101  00000+0  00000+0 0  9996
2 43567  57.1352 339.3320 0003758 269.7556  90.2538  1.70476411 50728

# E15 (GNSS)
1 43564U 18060A   26265.43785046 -.00000078  00000+0  00000+0 0  9999
2 43564  57.1298 339.1540 0004899 270.7276  89.2757  1.70476363 50811

# E33 (GNSS)
1 43565U 18060B   26266.83081615 -.00000072  00000+0  00000+0 0  9990
2 43565  57.1328 339.1203 0004544 241.1728 118.8453  1.70476245 50892

# E34 (GNSS)
1 49809U 21116A   26267.71433902 -.00000069  00000+0  00000+0 0  9997
2 49809  57.1201 338.9871 0004172 225.2566 136.7520  1.70476401 29880

# E10 (GNSS)
1 49810U 21116B   26268.69962216 -.00000066  00000+0  00000+0 0  9999
2 49810  57.1203 338.9593 0003846 231.3014 128.0413  1.70476289 29911

# R01 (GNSS)
1 36111U 09070A   26266.86477765  .00000039  00000+0  00000+0 0  9990
2 36111  65.0745  67.6094 0001373 343.7694  15.0008  2.13103750130520

# R02 (GNSS)
1 39155U 13019A   26269.26992035  .00000038  00000+0  00000+0 0  9997
2 39155  65.4820  70.2153 0023479 225.9518 133.8766  2.13103245104432

# R03 (GNSS)
1 37867U 11064A   26269.80915413  .00000034  00000+0  00000+0 0  9994
2 37867  65.3336  69.4439 0022814 230.4129 135.5077  2.13103880115935

# R04 (GNSS)
1 44850U 19088A   26269.85872420  .00000036  00000+0  00000+0 0  9995
2 44850  65.6276  70.3412 0012303 244.4145 115.4774  2.13103046 52887

# R05 (GNSS)
1 43508U 18053A   26269.91442583  .00000037  00000+0  00000+0 0  9996
2 43508  65.6398  70.5174 0007439 213.1948 146.7777  2.13102262 64440

# R06 (GNSS)
1 36112U 09070B   26270.22447742  .00000028  00000+0  00000+0 0  9996
2 36112  65.0632  67.3375 0005982 135.5743  47.1275  2.13101086130608

# R07 (GNSS)
1 37868U 11064B   26270.27983557  .00000033  00000+0  00000+0 0  9991
2 37868  65.3400  69.5088 0019846 230.2916 316.7457  2.13102934115936

# R08 (GNSS)
1 37869U 11064C   26267.52397483  .00000043  00000+0  00000+0 0  9994
2 37869  65.3462  69.6239 0024905 245.5374 301.9912  2.13101751115885

# R09 (GNSS)
1 40315U 14075A   26269.66073197  .00000027  00000+0  00000+0 0  9991
2 40315  63.6164 186.8617 0021866 209.2130 150.6946  2.13101447 92014

# R10 (GNSS)
1 32395U 07065C   26270.28516427  .00000032  00000+0  00000+0 0  9995
2 32395  64.3271 188.5479 0017471   1.4131  74.5045  2.13100074145901

# R11 (GNSS)
1 46805U 20075A   26267.89787701  .00000008  00000+0  00000+0 0  9993
2 46805  64.6005 189.1502 0008276 235.3903 124.5480  2.13099917 46038

# R12 (GNSS)
1 44299U 19030A   26268.15449444  .00000011  00000+0  00000+0 0  9990
2 44299  64.3690 189.2531 0011272 276.6293 234.1364  2.13102243 57053

# R13 (GNSS)
1 32393U 07065A   26270.08093322  .00000030  00000+0  00000+0 0  9993
2 32393  64.3185 188.4814 0002038  48.5240  98.8629  2.13101359145949

# R14 (GNSS)
1 42939U 17055A   26269.95213442  .00000029  00000+0  00000+0 0  9999
2 42939  64.0792 188.4230 0009028 234.9061 125.0377  2.13102062 70141

# R15 (GNSS)
1 43687U 18086A   26270.01039791  .00000029  00000+0  00000+0 0  9997
2 43687  64.2957 189.1587 0009973 254.1507 105.7667  2.13102094 61454

# R16 (GNSS)
1 54377U 22161A   26270.07046972  .00000030  00000+0  00000+0 0  9991
2 54377  64.7417 189.3330 0010566 216.2874 143.6683  2.13102022 29805

# R17 (GNSS)
1 41330U 16008A   26270.11463803 -.00000001  00000+0  00000+0 0  9999
2 41330  64.9563 309.5022 0013768 211.9533 148.0418  2.13102721 82797

# R18 (GNSS)
1 39620U 14012A   26270.16738583 -.00000002  00000+0  00000+0 0  9997
2 39620  65.2327 310.4650 0012301 306.5607  53.4060  2.13103567 97417

# R19 (GNSS)
1 54031U 22130A   26270.22751203 -.00000005  00000+0  00000+0 0  9994
2 54031  64.2059 310.9645 0013430 189.5718 170.4810  2.13101641 30866

# R20 (GNSS)
1 32276U 07052B   26270.28875159 -.00000005  00000+0  00000+0 0  9990
2 32276  65.5299 312.6224 0009194 306.9230  54.1133  2.13103391147264

# R21 (GNSS)
1 40001U 14032A   26269.86695841 -.00000001  00000+0  00000+0 0  9997
2 40001  65.1682 310.2144 0009440 207.1625 152.8681  2.13101737 95628

# R22 (GNSS)
1 52984U 22075A   26268.06133109 -.00000003  00000+0  00000+0 0  9993
2 52984  64.2343 310.9617 0012797 270.0758  89.8594  2.13102490 32846

# R23 (GNSS)
1 36402U 10007C   26265.40205623 -.00000008  00000+0  00000+0 0  9993
2 36402  65.3592 311.1726 0002578 222.5647 222.5420  2.13101986128805

# R24 (GNSS)
1 45358U 20018A   26270.05365493 -.00000001  00000+0  00000+0 0  9998
2 45358  64.2888 308.8333 0012128 237.8225 122.1376  2.13102768 50832

# R25 (GNSS)
1 32275U 07052A   26270.21381813 -.00000004  00000+0  00000+0 0  9990
2 32275  65.5138 312.4959 0005715 230.3737 129.6568  2.13104451147230
